{
  "type": "FeatureCollection",
  "features": [
    {
      "type": "Feature",
      "properties": {
        "norad_id": 66878,
        "name": "STARLINK-35866",
        "group": "last-30-days",
        "lat": 50.97141629044211,
        "lon": 136.3005467835278,
        "alt_km": 343.5477103108433,
        "timestamp": "2025-12-22T16:55:16.168310+00:00",
        "meta_object_name": "STARLINK-35866",
        "meta_object_id": "2025-283A",
        "meta_epoch": "2025-12-22T06:00:02.000160",
        "meta_mean_motion": 15.74503746,
        "meta_eccentricity": 0.00010987,
        "meta_inclination": 53.1579,
        "meta_ra_of_asc_node": 26.2208,
        "meta_arg_of_pericenter": 77.5334,
        "meta_mean_anomaly": 327.1254,
        "meta_ephemeris_type": 0,
        "meta_classification_type": "U",
        "meta_norad_cat_id": 66878,
        "meta_element_set_no": 999,
        "meta_rev_at_epoch": 395,
        "meta_bstar": -0.014070761,
        "meta_mean_motion_dot": -0.01827765,
        "meta_mean_motion_ddot": 0,
        "tle_line1": "1 66878U 25283A   25356.25002315 -.01827765  00000+0 -14071-1 0  9995",
        "tle_line2": "2 66878  53.1579  26.2208 0001098  77.5334 327.1254 15.74503746  3957"
      },
      "geometry": {
        "type": "Point",
        "coordinates": [
          136.3005467835278,
          50.97141629044211
        ]
      }
    },
    {
      "type": "Feature",
      "properties": {
        "norad_id": 66879,
        "name": "STARLINK-35749",
        "group": "last-30-days",
        "lat": 49.66685071107921,
        "lon": 141.9396352279299,
        "alt_km": 343.9876270962459,
        "timestamp": "2025-12-22T16:55:16.168324+00:00",
        "meta_object_name": "STARLINK-35749",
        "meta_object_id": "2025-283B",
        "meta_epoch": "2025-12-22T06:00:02.000160",
        "meta_mean_motion": 15.74473783,
        "meta_eccentricity": 8.606e-05,
        "meta_inclination": 53.158,
        "meta_ra_of_asc_node": 26.2126,
        "meta_arg_of_pericenter": 65.5807,
        "meta_mean_anomaly": 342.9196,
        "meta_ephemeris_type": 0,
        "meta_classification_type": "U",
        "meta_norad_cat_id": 66879,
        "meta_element_set_no": 999,
        "meta_rev_at_epoch": 395,
        "meta_bstar": -0.013780747,
        "meta_mean_motion_dot": -0.01792582,
        "meta_mean_motion_ddot": 0,
        "tle_line1": "1 66879U 25283B   25356.25002315 -.01792582  00000+0 -13781-1 0  9991",
        "tle_line2": "2 66879  53.1580  26.2126 0000860  65.5807 342.9196 15.74473783  3954"
      },
      "geometry": {
        "type": "Point",
        "coordinates": [
          141.9396352279299,
          49.66685071107921
        ]
      }
    },
    {
      "type": "Feature",
      "properties": {
        "norad_id": 66880,
        "name": "STARLINK-35844",
        "group": "last-30-days",
        "lat": 50.353104635834626,
        "lon": 139.16071595792317,
        "alt_km": 343.57548558634517,
        "timestamp": "2025-12-22T16:55:16.168334+00:00",
        "meta_object_name": "STARLINK-35844",
        "meta_object_id": "2025-283C",
        "meta_epoch": "2025-12-22T06:00:02.000160",
        "meta_mean_motion": 15.74486078,
        "meta_eccentricity": 0.00011648,
        "meta_inclination": 53.1581,
        "meta_ra_of_asc_node": 26.2169,
        "meta_arg_of_pericenter": 83.11,
        "meta_mean_anomaly": 323.4761,
        "meta_ephemeris_type": 0,
        "meta_classification_type": "U",
        "meta_norad_cat_id": 66880,
        "meta_element_set_no": 999,
        "meta_rev_at_epoch": 395,
        "meta_bstar": -0.013924629,
        "meta_mean_motion_dot": -0.01810019,
        "meta_mean_motion_ddot": 0,
        "tle_line1": "1 66880U 25283C   25356.25002315 -.01810019  00000+0 -13925-1 0  9999",
        "tle_line2": "2 66880  53.1581  26.2169 0001164  83.1100 323.4761 15.74486078  3957"
      },
      "geometry": {
        "type": "Point",
        "coordinates": [
          139.16071595792317,
          50.353104635834626
        ]
      }
    },
    {
      "type": "Feature",
      "properties": {
        "norad_id": 66881,
        "name": "STARLINK-35860",
        "group": "last-30-days",
        "lat": 48.91280807903234,
        "lon": 144.64909986439827,
        "alt_km": 344.10416910271215,
        "timestamp": "2025-12-22T16:55:16.168344+00:00",
        "meta_object_name": "STARLINK-35860",
        "meta_object_id": "2025-283D",
        "meta_epoch": "2025-12-22T06:00:02.000160",
        "meta_mean_motion": 15.74480022,
        "meta_eccentricity": 8.361e-05,
        "meta_inclination": 53.1582,
        "meta_ra_of_asc_node": 26.2086,
        "meta_arg_of_pericenter": 68.6898,
        "meta_mean_anomaly": 341.7288,
        "meta_ephemeris_type": 0,
        "meta_classification_type": "U",
        "meta_norad_cat_id": 66881,
        "meta_element_set_no": 999,
        "meta_rev_at_epoch": 395,
        "meta_bstar": -0.013848942,
        "meta_mean_motion_dot": -0.01800748,
        "meta_mean_motion_ddot": 0,
        "tle_line1": "1 66881U 25283D   25356.25002315 -.01800748  00000+0 -13849-1 0  9993",
        "tle_line2": "2 66881  53.1582  26.2086 0000836  68.6898 341.7288 15.74480022  3954"
      },
      "geometry": {
        "type": "Point",
        "coordinates": [
          144.64909986439827,
          48.91280807903234
        ]
      }
    },
    {
      "type": "Feature",
      "properties": {
        "norad_id": 66882,
        "name": "STARLINK-35912",
        "group": "last-30-days",
        "lat": 48.09679771882946,
        "lon": 147.2742084138444,
        "alt_km": 343.9489492400853,
        "timestamp": "2025-12-22T16:55:16.168354+00:00",
        "meta_object_name": "STARLINK-35912",
        "meta_object_id": "2025-283E",
        "meta_epoch": "2025-12-22T06:00:02.000160",
        "meta_mean_motion": 15.74480829,
        "meta_eccentricity": 0.00014124,
        "meta_inclination": 53.1579,
        "meta_ra_of_asc_node": 26.205,
        "meta_arg_of_pericenter": 59.8502,
        "meta_mean_anomaly": 352.4855,
        "meta_ephemeris_type": 0,
        "meta_classification_type": "U",
        "meta_norad_cat_id": 66882,
        "meta_element_set_no": 999,
        "meta_rev_at_epoch": 395,
        "meta_bstar": -0.013873593,
        "meta_mean_motion_dot": -0.01804058,
        "meta_mean_motion_ddot": 0,
        "tle_line1": "1 66882U 25283E   25356.25002315 -.01804058  00000+0 -13874-1 0  9990",
        "tle_line2": "2 66882  53.1579  26.2050 0001412  59.8502 352.4855 15.74480829  3951"
      },
      "geometry": {
        "type": "Point",
        "coordinates": [
          147.2742084138444,
          48.09679771882946
        ]
      }
    },
    {
      "type": "Feature",
      "properties": {
        "norad_id": 66883,
        "name": "STARLINK-35947",
        "group": "last-30-days",
        "lat": 47.22487816243347,
        "lon": 149.8096021349887,
        "alt_km": 344.1251766007899,
        "timestamp": "2025-12-22T16:55:16.168367+00:00",
        "meta_object_name": "STARLINK-35947",
        "meta_object_id": "2025-283F",
        "meta_epoch": "2025-12-22T06:00:02.000160",
        "meta_mean_motion": 15.7449043,
        "meta_eccentricity": 0.00011802,
        "meta_inclination": 53.158,
        "meta_ra_of_asc_node": 26.2014,
        "meta_arg_of_pericenter": 69.1215,
        "meta_mean_anomaly": 345.1237,
        "meta_ephemeris_type": 0,
        "meta_classification_type": "U",
        "meta_norad_cat_id": 66883,
        "meta_element_set_no": 999,
        "meta_rev_at_epoch": 400,
        "meta_bstar": -0.01392311,
        "meta_mean_motion_dot": -0.01810161,
        "meta_mean_motion_ddot": 0,
        "tle_line1": "1 66883U 25283F   25356.25002315 -.01810161  00000+0 -13923-1 0  9998",
        "tle_line2": "2 66883  53.1580  26.2014 0001180  69.1215 345.1237 15.74490430  4000"
      },
      "geometry": {
        "type": "Point",
        "coordinates": [
          149.8096021349887,
          47.22487816243347
        ]
      }
    },
    {
      "type": "Feature",
      "properties": {
        "norad_id": 66884,
        "name": "STARLINK-36057",
        "group": "last-30-days",
        "lat": 45.3227220187916,
        "lon": 154.6230946553013,
        "alt_km": 344.28669162608185,
        "timestamp": "2025-12-22T16:55:16.168379+00:00",
        "meta_object_name": "STARLINK-36057",
        "meta_object_id": "2025-283G",
        "meta_epoch": "2025-12-22T06:00:02.000160",
        "meta_mean_motion": 15.7447906,
        "meta_eccentricity": 0.00011682,
        "meta_inclination": 53.158,
        "meta_ra_of_asc_node": 26.1926,
        "meta_arg_of_pericenter": 97.7302,
        "meta_mean_anomaly": 320.3576,
        "meta_ephemeris_type": 0,
        "meta_classification_type": "U",
        "meta_norad_cat_id": 66884,
        "meta_element_set_no": 999,
        "meta_rev_at_epoch": 395,
        "meta_bstar": -0.013832436,
        "meta_mean_motion_dot": -0.01799061,
        "meta_mean_motion_ddot": 0,
        "tle_line1": "1 66884U 25283G   25356.25002315 -.01799061  00000+0 -13832-1 0  9993",
        "tle_line2": "2 66884  53.1580  26.1926 0001168  97.7302 320.3576 15.74479060  3952"
      },
      "geometry": {
        "type": "Point",
        "coordinates": [
          154.6230946553013,
          45.3227220187916
        ]
      }
    }
  ]
}